OBJECT_NAME,OBJECT_ID,EPOCH,MEAN_MOTION,ECCENTRICITY,INCLINATION,RA_OF_ASC_NODE,ARG_OF_PERICENTER,MEAN_ANOMALY,EPHEMERIS_TYPE,CLASSIFICATION_TYPE,NORAD_CAT_ID,ELEMENT_SET_NO,REV_AT_EPOCH,BSTAR,MEAN_MOTION_DOT,MEAN_MOTION_DDOT
ONEWEB-0230,2021-045C,2026-06-09T07:56:24.696096,13.15548027,.0002034,87.8998,260.7691,96.6315,263.5047,0,U,48769,999,24363,.15643E-3,.72E-6,0
ONEWEB-0237,2021-045D,2026-06-09T07:40:24.811104,13.15548114,.0001671,87.8997,260.7730,100.6351,259.4967,0,U,48770,999,24335,-.9123E-3,-.331E-5,0
ONEWEB-0235,2021-045E,2026-06-09T12:32:30.053184,13.15548632,.0001543,87.9011,260.7175,104.0773,256.0529,0,U,48771,999,24337,-.14088E-3,-.4E-6,0
ONEWEB-0242,2021-045F,2026-06-09T12:23:21.164352,13.15557879,.0001841,87.9013,260.7151,98.0139,262.1201,0,U,48772,999,24341,.23631E-2,.903E-5,0
ONEWEB-0241,2021-045G,2026-06-09T12:05:07.797408,13.15548494,.0001714,87.8997,260.7372,112.4697,247.6615,0,U,48773,999,24332,.61713E-3,.245E-5,0
ONEWEB-0243,2021-045H,2026-06-09T07:22:10.957728,13.15548516,.0001562,87.9001,260.7886,88.8893,271.2417,0,U,48774,999,24332,-.11572E-3,-.31E-6,0
ONEWEB-0222,2021-045J,2026-06-09T12:26:47.512608,13.15548839,.0001755,87.9011,260.7132,105.2176,254.9148,0,U,48775,999,24339,.49597E-4,.31E-6,0
ONEWEB-0244,2021-045K,2026-06-09T07:35:52.486080,13.15548155,.0001818,87.9013,260.7478,100.3179,259.8156,0,U,48776,999,24393,-.17548E-3,-.53E-6,0
ONEWEB-0247,2021-045L,2026-06-09T07:31:17.607936,13.15547402,.0001161,87.8999,260.7818,91.6601,268.4662,0,U,48777,999,24337,-.20173E-3,-.63E-6,0
ONEWEB-0245,2021-045M,2026-06-09T07:24:27.004896,13.15547764,.0001854,87.9010,260.7612,105.8278,254.3057,0,U,48778,999,24334,-.28301E-3,-.94E-6,0
ONEWEB-0229,2021-045N,2026-06-09T12:46:11.169408,13.15548600,.0001839,87.9009,260.7146,97.4500,262.6839,0,U,48779,999,24340,-.25686E-3,-.84E-6,0
ONEWEB-0228,2021-045P,2026-06-09T08:05:42.502272,13.15550715,.0001864,87.9013,260.7455,101.8900,258.2439,0,U,48780,999,24329,.52921E-3,.212E-5,0
ONEWEB-0232,2021-045Q,2026-06-09T07:29:01.097664,13.15550164,.0001966,87.9012,260.7520,103.5565,256.5784,0,U,48781,999,24361,-.1069E-3,-.27E-6,0
ONEWEB-0231,2021-045R,2026-06-09T12:25:38.726112,13.15548742,.0001722,87.9007,260.7242,103.9070,256.2252,0,U,48782,999,24333,-.18728E-4,.6E-7,0
ONEWEB-0234,2021-045S,2026-06-09T07:51:38.947104,13.15548868,.0002528,87.9005,260.7437,116.0923,244.0467,0,U,48783,999,24344,-.79214E-5,.1E-6,0
ONEWEB-0238,2021-045T,2026-06-09T07:52:01.526016,13.15550795,.0002245,87.9010,260.7378,110.1180,250.0192,0,U,48784,999,24334,.18892E-3,.84E-6,0
ONEWEB-0240,2021-045U,2026-06-09T06:33:06.711840,13.15547752,.0001764,87.9014,260.7589,109.8663,250.2657,0,U,48785,999,24336,.66794E-3,.264E-5,0
ONEWEB-0246,2021-045V,2026-06-09T08:14:40.216128,13.15548953,.000187,87.9011,260.7494,98.4706,261.6637,0,U,48786,999,24324,.629E-3,.25E-5,0
ONEWEB-0210,2021-045W,2026-06-09T07:38:08.689632,13.15550414,.0001305,87.9010,260.7515,79.1781,280.9497,0,U,48787,999,24328,-.22962E-3,-.74E-6,0
ONEWEB-0214,2021-045X,2026-06-09T07:50:42.154656,13.15548381,.0001921,87.9011,260.7465,89.9856,270.1494,0,U,48788,999,24325,.60404E-4,.36E-6,0
ONEWEB-0221,2021-045Y,2026-06-09T08:00:58.364640,13.15547896,.0001744,87.9009,260.7539,102.4679,257.6647,0,U,48789,999,24334,.33278E-3,.138E-5,0
ONEWEB-0213,2021-045Z,2026-06-09T07:44:58.434720,13.15548415,.0001673,87.9007,260.7595,100.1934,259.9384,0,U,48790,999,24340,-.51753E-3,-.182E-5,0
ONEWEB-0212,2021-045AA,2026-06-09T12:40:29.147232,13.15549973,.0002,87.9010,260.7127,101.8551,258.2803,0,U,48791,999,24342,-.32352E-3,-.109E-5,0
ONEWEB-0227,2021-045AB,2026-06-09T12:39:20.816064,13.15548894,.0001885,87.9008,260.7138,102.5078,257.6263,0,U,48792,999,24337,-.10412E-3,-.26E-6,0
ONEWEB-0226,2021-045AC,2026-06-09T12:30:12.524256,13.15550485,.0001699,87.9007,260.7199,96.7409,263.3915,0,U,48793,999,24334,-.76451E-4,-.16E-6,0
ONEWEB-0224,2021-045AD,2026-06-09T07:58:39.874944,13.15549807,.0002073,87.8996,260.7919,126.8161,233.3160,0,U,48794,999,24324,-.82027E-4,-.18E-6,0
ONEWEB-0233,2021-045AE,2026-06-09T08:05:20.179104,13.15547955,.0001692,87.9000,260.7986,106.1253,254.0063,0,U,48795,999,24326,.36141E-3,.149E-5,0
ONEWEB-0190,2021-045AF,2026-06-09T07:47:15.210240,13.15548358,.0001252,87.9000,260.7630,102.3735,257.7535,0,U,48796,999,24333,-.58192E-3,-.206E-5,0
ONEWEB-0236,2021-045AG,2026-06-09T04:33:20.361600,13.15548047,.00020699,87.9000,260.7998,103.3067,256.8295,0,U,48797,999,24320,.45786057E-3,.185E-5,0
ONEWEB-0248,2021-045AH,2026-06-09T12:09:39.875328,13.15547603,.0001597,87.9011,260.7194,112.3536,247.7764,0,U,48798,999,24340,.50485E-3,.203E-5,0
