ONEWEB-0230             
1 48769U 21045C   26160.33084139  .00000072  00000+0  15643-3 0  9992
2 48769  87.8998 260.7691 0002034  96.6315 263.5047 13.15548027243636
ONEWEB-0237             
1 48770U 21045D   26160.31973161 -.00000331  00000+0 -91230-3 0  9990
2 48770  87.8997 260.7730 0001671 100.6351 259.4967 13.15548114243354
ONEWEB-0235             
1 48771U 21045E   26160.52257006 -.00000040  00000+0 -14088-3 0  9990
2 48771  87.9011 260.7175 0001543 104.0773 256.0529 13.15548632243374
ONEWEB-0242             
1 48772U 21045F   26160.51621718  .00000903  00000+0  23631-2 0  9994
2 48772  87.9013 260.7151 0001841  98.0139 262.1201 13.15557879243413
ONEWEB-0241             
1 48773U 21045G   26160.50356247  .00000245  00000+0  61713-3 0  9999
2 48773  87.8997 260.7372 0001714 112.4697 247.6615 13.15548494243328
ONEWEB-0243             
1 48774U 21045H   26160.30707127 -.00000031  00000+0 -11572-3 0  9998
2 48774  87.9001 260.7886 0001562  88.8893 271.2417 13.15548516243329
ONEWEB-0222             
1 48775U 21045J   26160.51860547  .00000031  00000+0  49597-4 0  9995
2 48775  87.9011 260.7132 0001755 105.2176 254.9148 13.15548839243391
ONEWEB-0244             
1 48776U 21045K   26160.31657970 -.00000053  00000+0 -17548-3 0  9994
2 48776  87.9013 260.7478 0001818 100.3179 259.8156 13.15548155243930
ONEWEB-0247             
1 48777U 21045L   26160.31339824 -.00000063  00000+0 -20173-3 0  9999
2 48777  87.8999 260.7818 0001161  91.6601 268.4662 13.15547402243374
ONEWEB-0245             
1 48778U 21045M   26160.30864589 -.00000094  00000+0 -28301-3 0  9995
2 48778  87.9010 260.7612 0001854 105.8278 254.3057 13.15547764243349
ONEWEB-0229             
1 48779U 21045N   26160.53207372 -.00000084  00000+0 -25686-3 0  9994
2 48779  87.9009 260.7146 0001839  97.4500 262.6839 13.15548600243404
ONEWEB-0228             
1 48780U 21045P   26160.33729748  .00000212  00000+0  52921-3 0  9993
2 48780  87.9013 260.7455 0001864 101.8900 258.2439 13.15550715243290
ONEWEB-0232             
1 48781U 21045Q   26160.31181826 -.00000027  00000+0 -10690-3 0  9994
2 48781  87.9012 260.7520 0001966 103.5565 256.5784 13.15550164243610
ONEWEB-0231             
1 48782U 21045R   26160.51780933  .00000006  00000+0 -18728-4 0  9998
2 48782  87.9007 260.7242 0001722 103.9070 256.2252 13.15548742243336
ONEWEB-0234             
1 48783U 21045S   26160.32753411  .00000010  00000+0 -79214-5 0  9992
2 48783  87.9005 260.7437 0002528 116.0923 244.0467 13.15548868243442
ONEWEB-0238             
1 48784U 21045T   26160.32779544  .00000084  00000+0  18892-3 0  9991
2 48784  87.9010 260.7378 0002245 110.1180 250.0192 13.15550795243342
ONEWEB-0240             
1 48785U 21045U   26160.27299435  .00000264  00000+0  66794-3 0  9996
2 48785  87.9014 260.7589 0001764 109.8663 250.2657 13.15547752243366
ONEWEB-0246             
1 48786U 21045V   26160.34352102  .00000250  00000+0  62900-3 0  9996
2 48786  87.9011 260.7494 0001870  98.4706 261.6637 13.15548953243243
ONEWEB-0210             
1 48787U 21045W   26160.31815613 -.00000074  00000+0 -22962-3 0  9995
2 48787  87.9010 260.7515 0001305  79.1781 280.9497 13.15550414243286
ONEWEB-0214             
1 48788U 21045X   26160.32687679  .00000036  00000+0  60404-4 0  9996
2 48788  87.9011 260.7465 0001921  89.9856 270.1494 13.15548381243253
ONEWEB-0221             
1 48789U 21045Y   26160.33400885  .00000138  00000+0  33278-3 0  9991
2 48789  87.9009 260.7539 0001744 102.4679 257.6647 13.15547896243340
ONEWEB-0213             
1 48790U 21045Z   26160.32289855 -.00000182  00000+0 -51753-3 0  9993
2 48790  87.9007 260.7595 0001673 100.1934 259.9384 13.15548415243400
ONEWEB-0212             
1 48791U 21045AA  26160.52811513 -.00000109  00000+0 -32352-3 0  9991
2 48791  87.9010 260.7127 0002000 101.8551 258.2803 13.15549973243424
ONEWEB-0227             
1 48792U 21045AB  26160.52732426 -.00000026  00000+0 -10412-3 0  9998
2 48792  87.9008 260.7138 0001885 102.5078 257.6263 13.15548894243374
ONEWEB-0226             
1 48793U 21045AC  26160.52097829 -.00000016  00000+0 -76451-4 0  9995
2 48793  87.9007 260.7199 0001699  96.7409 263.3915 13.15550485243340
ONEWEB-0224             
1 48794U 21045AD  26160.33240596 -.00000018  00000+0 -82027-4 0  9994
2 48794  87.8996 260.7919 0002073 126.8161 233.3160 13.15549807243248
ONEWEB-0233             
1 48795U 21045AE  26160.33703911  .00000149  00000+0  36141-3 0  9998
2 48795  87.9000 260.7986 0001692 106.1253 254.0063 13.15547955243265
ONEWEB-0190             
1 48796U 21045AF  26160.32448160 -.00000206  00000+0 -58192-3 0  9996
2 48796  87.9000 260.7630 0001252 102.3735 257.7535 13.15548358243337
ONEWEB-0236             
1 48797U 21045AG  26160.18981900  .00000185  00000+0  45786-3 0  9994
2 48797  87.9000 260.7998 0002069 103.3067 256.8295 13.15548047243205
ONEWEB-0248             
1 48798U 21045AH  26160.50671152  .00000203  00000+0  50485-3 0  9999
2 48798  87.9011 260.7194 0001597 112.3536 247.7764 13.15547603243401
